[{"OBJECT_NAME":"ARIRANG-5 (KOMPSAT-5)","OBJECT_ID":"2013-042A","EPOCH":"2026-03-10T00:02:57.181344","MEAN_MOTION":15.04553599,"ECCENTRICITY":0.00039005,"INCLINATION":97.62,"RA_OF_ASC_NODE":257.0804,"ARG_OF_PERICENTER":111.6826,"MEAN_ANOMALY":248.4816,"EPHEMERIS_TYPE":0,"CLASSIFICATION_TYPE":"U","NORAD_CAT_ID":39227,"ELEMENT_SET_NO":999,"REV_AT_EPOCH":68894,"BSTAR":0.00023956705,"MEAN_MOTION_DOT":3.298e-5,"MEAN_MOTION_DDOT":0},{"OBJECT_NAME":"STARLINK-34933","OBJECT_ID":"2025-179U","EPOCH":"2026-03-09T16:18:19.188864","MEAN_MOTION":15.05661498,"ECCENTRICITY":8.946e-5,"INCLINATION":97.603,"RA_OF_ASC_NODE":112.9057,"ARG_OF_PERICENTER":125.2726,"MEAN_ANOMALY":234.8585,"EPHEMERIS_TYPE":0,"CLASSIFICATION_TYPE":"U","NORAD_CAT_ID":65253,"ELEMENT_SET_NO":999,"REV_AT_EPOCH":3181,"BSTAR":0.00098826717,"MEAN_MOTION_DOT":0.00014232,"MEAN_MOTION_DDOT":0}]
